*******************************************************************************
Ephemeris / WWW_USER Fri Mar  7 09:47:01 2025 Pasadena, USA      / Horizons    
*******************************************************************************
Target body name: Pluto (999)                     {source: plu060_merged}
Center body name: Earth (399)                     {source: DE441}
Center-site name: Mauna Kea
*******************************************************************************
Start time      : A.D. 2019-Jan-19 04:15:00.0000 UT      
Stop  time      : A.D. 2019-Jan-19 16:49:00.0000 UT      
Step-size       : 1 minutes
*******************************************************************************
Target pole/equ : IAU_PLUTO                       {East-longitude positive}
Target radii    : 1188.3, 1188.3, 1188.3 km       {Equator_a, b, pole_c}       
Center geodetic : 204.5278, 19.8260847, 4.21024   {E-lon(deg),Lat(deg),Alt(km)}
Center cylindric: 204.5278, 6006.35451, 2151.0229 {E-lon(deg),Dxy(km),Dz(km)}
Center pole/equ : ITRF93                          {East-longitude positive}
Center radii    : 6378.137, 6378.137, 6356.752 km {Equator_a, b, pole_c}       
Target primary  : Sun
Vis. interferer : MOON (R_eq= 1737.400) km        {source: DE441}
Rel. light bend : Sun                             {source: plu060_merged}
Rel. lght bnd GM: 1.3271E+11 km^3/s^2                                          
Atmos refraction: NO (AIRLESS)
RA format       : HMS
Time format     : CAL 
Calendar mode   : Mixed Julian/Gregorian
RTS-only print  : NO       
EOP file        : eop.250306.p250602                                           
EOP coverage    : DATA-BASED 1962-JAN-20 TO 2025-MAR-06. PREDICTS-> 2025-JUN-01
Units conversion: 1 au= 149597870.700 km, c= 299792.458 km/s, 1 day= 86400.0 s 
Table cut-offs 1: Elevation (-90.0deg=NO ),Airmass (>38.000=NO), Daylight (YES)
Table cut-offs 2: Solar elongation (  0.0,180.0=NO ),Local Hour Angle( 0.0=NO )
Table cut-offs 3: RA/DEC angular rate (     0.0=NO )                           
*******************************************************************************
 Date__(UT)__HR:MN     R.A._________(ICRF)_________DEC
******************************************************
$$SOE
 2019-Jan-19 16:00 A   19 30 45.491647 -21 55 58.56159
 2019-Jan-19 16:01 A   19 30 45.497632 -21 55 58.55289
 2019-Jan-19 16:02 A   19 30 45.503617 -21 55 58.54420
 2019-Jan-19 16:03 A   19 30 45.509601 -21 55 58.53550
 2019-Jan-19 16:04 A   19 30 45.515585 -21 55 58.52681
 2019-Jan-19 16:05 A   19 30 45.521568 -21 55 58.51811
 2019-Jan-19 16:06 A   19 30 45.527551 -21 55 58.50942
 2019-Jan-19 16:07 A   19 30 45.533534 -21 55 58.50072
 2019-Jan-19 16:08 A   19 30 45.539517 -21 55 58.49203
 2019-Jan-19 16:09 A   19 30 45.545499 -21 55 58.48333
 2019-Jan-19 16:10 N   19 30 45.551481 -21 55 58.47464
 2019-Jan-19 16:11 N   19 30 45.557462 -21 55 58.46594
 2019-Jan-19 16:12 N   19 30 45.563443 -21 55 58.45725
 2019-Jan-19 16:13 N   19 30 45.569424 -21 55 58.44855
 2019-Jan-19 16:14 N   19 30 45.575405 -21 55 58.43985
 2019-Jan-19 16:15 N   19 30 45.581385 -21 55 58.43116
 2019-Jan-19 16:16 N   19 30 45.587365 -21 55 58.42246
 2019-Jan-19 16:17 N   19 30 45.593344 -21 55 58.41377
 2019-Jan-19 16:18 N   19 30 45.599323 -21 55 58.40507
 2019-Jan-19 16:19 N   19 30 45.605302 -21 55 58.39637
 2019-Jan-19 16:20 Nr  19 30 45.611280 -21 55 58.38767
 2019-Jan-19 16:21 N   19 30 45.617259 -21 55 58.37898
 2019-Jan-19 16:22 N   19 30 45.623236 -21 55 58.37028
 2019-Jan-19 16:23 N   19 30 45.629214 -21 55 58.36158
 2019-Jan-19 16:24 N   19 30 45.635191 -21 55 58.35288
 2019-Jan-19 16:25 N   19 30 45.641168 -21 55 58.34419
 2019-Jan-19 16:26 N   19 30 45.647144 -21 55 58.33549
 2019-Jan-19 16:27 N   19 30 45.653120 -21 55 58.32679
 2019-Jan-19 16:28 N   19 30 45.659096 -21 55 58.31809
 2019-Jan-19 16:29 N   19 30 45.665071 -21 55 58.30939
 2019-Jan-19 16:30 N   19 30 45.671047 -21 55 58.30069
 2019-Jan-19 16:31 N   19 30 45.677021 -21 55 58.29199
 2019-Jan-19 16:32 N   19 30 45.682996 -21 55 58.28329
 2019-Jan-19 16:33 N   19 30 45.688970 -21 55 58.27459
 2019-Jan-19 16:34 N   19 30 45.694944 -21 55 58.26589
 2019-Jan-19 16:35 N   19 30 45.700917 -21 55 58.25719
 2019-Jan-19 16:36 N   19 30 45.706890 -21 55 58.24849
 2019-Jan-19 16:37 C   19 30 45.712863 -21 55 58.23979
 2019-Jan-19 16:38 C   19 30 45.718835 -21 55 58.23109
 2019-Jan-19 16:39 C   19 30 45.724807 -21 55 58.22238
 2019-Jan-19 16:40 C   19 30 45.730779 -21 55 58.21368
 2019-Jan-19 16:41 C   19 30 45.736751 -21 55 58.20498
 2019-Jan-19 16:42 C   19 30 45.742722 -21 55 58.19628
 2019-Jan-19 16:43 C   19 30 45.748692 -21 55 58.18757
 2019-Jan-19 16:44 C   19 30 45.754663 -21 55 58.17887
 2019-Jan-19 16:45 C   19 30 45.760633 -21 55 58.17017
 2019-Jan-19 16:46 C   19 30 45.766603 -21 55 58.16146
 2019-Jan-19 16:47 C   19 30 45.772572 -21 55 58.15276
 2019-Jan-19 16:48 C   19 30 45.778541 -21 55 58.14405
 2019-Jan-19 16:49 C   19 30 45.784510 -21 55 58.13535
